KUIPER-00167            
1 65780U 25217U   26061.35358307  .00004970  00000+0  68142-3 0  9995
2 65780  51.8961  78.0071 0000270  32.8491 327.2488 14.79868012 23754
KUIPER-00168            
1 65781U 25217V   26061.98014036 -.00000233  00000+0 -14951-5 0  9994
2 65781  51.9019  57.7700 0000977  68.5649 291.5417 14.79931291 24091
KUIPER-00169            
1 65782U 25217W   26062.17784764  .00005030  00000+0  69075-3 0  9992
2 65782  51.9015  61.9023 0000739  93.8761 266.2286 14.79781575 24052
KUIPER-00170            
1 65783U 25217X   26062.17158799  .00002196  00000+0  31703-3 0  9993
2 65783  51.8989  66.9076 0000796  86.1817 273.9236 14.79923205 23984
KUIPER-00172            
1 65785U 25217Z   26062.16668981 -.01633997  00000+0 -17011+0 0  9997
2 65785  51.8944  47.8651 0002584 285.1839 213.5338 14.92953397  2739
KUIPER-00173            
1 65786U 25217AA  26062.14611484  .00003475  00000+0  45896-3 0  9997
2 65786  51.9011  61.3680 0001510 130.8330 229.2765 14.82260363 24059
KUIPER-00174            
1 65787U 25217AB  26062.14899954 -.00021376  00000+0 -27841-2 0  9999
2 65787  51.9034  57.0475 0000887 110.7852 249.3205 14.79929754 24112
KUIPER-00176            
1 65788U 25217AC  26062.06512459  .00005153  00000+0  70371-3 0  9993
2 65788  51.8994  72.3921 0000888  62.1439 297.9613 14.79979828 23898
KUIPER-00101            
1 65947U 25228A   26062.14491413 -.00002793  00000+0 -33743-3 0  9998
2 65947  51.8973  29.5153 0000810 123.6546 236.4493 14.79934813 22269
KUIPER-00113            
1 65948U 25228B   26062.11653962  .00005875  00000+0  79854-3 0  9990
2 65948  51.8994  24.6611 0000841  89.2903 270.8156 14.79953844 22326
KUIPER-00117            
1 65949U 25228C   26062.14763685 -.00000034  00000+0  24522-4 0  9994
2 65949  51.8993  27.0265 0000991  79.1139 280.9935 14.79940698 22299
KUIPER-00121            
1 65950U 25228D   26062.11920124  .00006003  00000+0  81583-3 0  9996
2 65950  51.9009  22.1460 0001324  98.2324 261.8789 14.79926450 22365
KUIPER-00122            
1 65951U 25228E   26062.10719677 -.00013237  00000+0 -17158-2 0  9990
2 65951  51.9015  32.1635 0000973  84.7942 275.3132 14.79810679 22225
KUIPER-00123            
1 65952U 25228F   26062.14240625  .00005983  00000+0  81306-3 0  9991
2 65952  51.8994  32.0452 0001036  91.0620 269.0461 14.79936152 22222
KUIPER-00124            
1 65953U 25228G   26062.08279391 -.00000146  00000+0  98690-5 0  9990
2 65953  51.8989  24.7939 0001078 102.0648 258.0435 14.79938137 22329
KUIPER-00125            
1 65954U 25228H   26062.09897361  .00006251  00000+0  84873-3 0  9993
2 65954  51.9020   9.7478 0000979 109.7779 250.3289 14.79909920 22539
KUIPER-00126            
1 65955U 25228J   26062.11116926  .00002172  00000+0  31374-3 0  9994
2 65955  51.8986  29.6911 0001022  99.6349 260.4729 14.79941050 22253
