[{"OBJECT_NAME":"KUIPER-00167","OBJECT_ID":"2025-217U","EPOCH":"2026-03-02T08:29:09.577248","MEAN_MOTION":14.79868012,"ECCENTRICITY":2.7e-5,"INCLINATION":51.8961,"RA_OF_ASC_NODE":78.0071,"ARG_OF_PERICENTER":32.8491,"MEAN_ANOMALY":327.2488,"EPHEMERIS_TYPE":0,"CLASSIFICATION_TYPE":"U","NORAD_CAT_ID":65780,"ELEMENT_SET_NO":999,"REV_AT_EPOCH":2375,"BSTAR":0.00068142389,"MEAN_MOTION_DOT":4.97e-5,"MEAN_MOTION_DDOT":0},{"OBJECT_NAME":"KUIPER-00168","OBJECT_ID":"2025-217V","EPOCH":"2026-03-02T23:31:24.127104","MEAN_MOTION":14.79931291,"ECCENTRICITY":9.77e-5,"INCLINATION":51.9019,"RA_OF_ASC_NODE":57.77,"ARG_OF_PERICENTER":68.5649,"MEAN_ANOMALY":291.5417,"EPHEMERIS_TYPE":0,"CLASSIFICATION_TYPE":"U","NORAD_CAT_ID":65781,"ELEMENT_SET_NO":999,"REV_AT_EPOCH":2409,"BSTAR":-1.4951e-6,"MEAN_MOTION_DOT":-2.33e-6,"MEAN_MOTION_DDOT":0},{"OBJECT_NAME":"KUIPER-00169","OBJECT_ID":"2025-217W","EPOCH":"2026-03-03T04:16:06.036096","MEAN_MOTION":14.79781575,"ECCENTRICITY":7.39e-5,"INCLINATION":51.9015,"RA_OF_ASC_NODE":61.9023,"ARG_OF_PERICENTER":93.8761,"MEAN_ANOMALY":266.2286,"EPHEMERIS_TYPE":0,"CLASSIFICATION_TYPE":"U","NORAD_CAT_ID":65782,"ELEMENT_SET_NO":999,"REV_AT_EPOCH":2405,"BSTAR":0.00069075,"MEAN_MOTION_DOT":5.03e-5,"MEAN_MOTION_DDOT":0},{"OBJECT_NAME":"KUIPER-00170","OBJECT_ID":"2025-217X","EPOCH":"2026-03-03T04:07:05.202336","MEAN_MOTION":14.79923205,"ECCENTRICITY":7.96e-5,"INCLINATION":51.8989,"RA_OF_ASC_NODE":66.9076,"ARG_OF_PERICENTER":86.1817,"MEAN_ANOMALY":273.9236,"EPHEMERIS_TYPE":0,"CLASSIFICATION_TYPE":"U","NORAD_CAT_ID":65783,"ELEMENT_SET_NO":999,"REV_AT_EPOCH":2398,"BSTAR":0.00031703,"MEAN_MOTION_DOT":2.196e-5,"MEAN_MOTION_DDOT":0},{"OBJECT_NAME":"KUIPER-00172","OBJECT_ID":"2025-217Z","EPOCH":"2026-03-03T04:00:01.999584","MEAN_MOTION":14.92953397,"ECCENTRICITY":0.0002584,"INCLINATION":51.8944,"RA_OF_ASC_NODE":47.8651,"ARG_OF_PERICENTER":285.1839,"MEAN_ANOMALY":213.5338,"EPHEMERIS_TYPE":0,"CLASSIFICATION_TYPE":"U","NORAD_CAT_ID":65785,"ELEMENT_SET_NO":999,"REV_AT_EPOCH":273,"BSTAR":-0.17011,"MEAN_MOTION_DOT":-0.01633997,"MEAN_MOTION_DDOT":0},{"OBJECT_NAME":"KUIPER-00173","OBJECT_ID":"2025-217AA","EPOCH":"2026-03-03T03:30:24.322176","MEAN_MOTION":14.82260363,"ECCENTRICITY":0.000151,"INCLINATION":51.9011,"RA_OF_ASC_NODE":61.368,"ARG_OF_PERICENTER":130.833,"MEAN_ANOMALY":229.2765,"EPHEMERIS_TYPE":0,"CLASSIFICATION_TYPE":"U","NORAD_CAT_ID":65786,"ELEMENT_SET_NO":999,"REV_AT_EPOCH":2405,"BSTAR":0.00045896,"MEAN_MOTION_DOT":3.475e-5,"MEAN_MOTION_DDOT":0},{"OBJECT_NAME":"KUIPER-00174","OBJECT_ID":"2025-217AB","EPOCH":"2026-03-03T03:34:33.560256","MEAN_MOTION":14.79929754,"ECCENTRICITY":8.87e-5,"INCLINATION":51.9034,"RA_OF_ASC_NODE":57.0475,"ARG_OF_PERICENTER":110.7852,"MEAN_ANOMALY":249.3205,"EPHEMERIS_TYPE":0,"CLASSIFICATION_TYPE":"U","NORAD_CAT_ID":65787,"ELEMENT_SET_NO":999,"REV_AT_EPOCH":2411,"BSTAR":-0.0027841,"MEAN_MOTION_DOT":-0.00021376,"MEAN_MOTION_DDOT":0},{"OBJECT_NAME":"KUIPER-00176","OBJECT_ID":"2025-217AC","EPOCH":"2026-03-03T01:33:46.764576","MEAN_MOTION":14.79979828,"ECCENTRICITY":8.88e-5,"INCLINATION":51.8994,"RA_OF_ASC_NODE":72.3921,"ARG_OF_PERICENTER":62.1439,"MEAN_ANOMALY":297.9613,"EPHEMERIS_TYPE":0,"CLASSIFICATION_TYPE":"U","NORAD_CAT_ID":65788,"ELEMENT_SET_NO":999,"REV_AT_EPOCH":2389,"BSTAR":0.00070371,"MEAN_MOTION_DOT":5.153e-5,"MEAN_MOTION_DDOT":0},{"OBJECT_NAME":"KUIPER-00101","OBJECT_ID":"2025-228A","EPOCH":"2026-03-03T03:28:40.580832","MEAN_MOTION":14.79934813,"ECCENTRICITY":8.1e-5,"INCLINATION":51.8973,"RA_OF_ASC_NODE":29.5153,"ARG_OF_PERICENTER":123.6546,"MEAN_ANOMALY":236.4493,"EPHEMERIS_TYPE":0,"CLASSIFICATION_TYPE":"U","NORAD_CAT_ID":65947,"ELEMENT_SET_NO":999,"REV_AT_EPOCH":2226,"BSTAR":-0.00033743,"MEAN_MOTION_DOT":-2.793e-5,"MEAN_MOTION_DDOT":0},{"OBJECT_NAME":"KUIPER-00113","OBJECT_ID":"2025-228B","EPOCH":"2026-03-03T02:47:49.023168","MEAN_MOTION":14.79953844,"ECCENTRICITY":8.41e-5,"INCLINATION":51.8994,"RA_OF_ASC_NODE":24.6611,"ARG_OF_PERICENTER":89.2903,"MEAN_ANOMALY":270.8156,"EPHEMERIS_TYPE":0,"CLASSIFICATION_TYPE":"U","NORAD_CAT_ID":65948,"ELEMENT_SET_NO":999,"REV_AT_EPOCH":2232,"BSTAR":0.00079854,"MEAN_MOTION_DOT":5.875e-5,"MEAN_MOTION_DDOT":0},{"OBJECT_NAME":"KUIPER-00117","OBJECT_ID":"2025-228C","EPOCH":"2026-03-03T03:32:35.823840","MEAN_MOTION":14.79940698,"ECCENTRICITY":9.91e-5,"INCLINATION":51.8993,"RA_OF_ASC_NODE":27.0265,"ARG_OF_PERICENTER":79.1139,"MEAN_ANOMALY":280.9935,"EPHEMERIS_TYPE":0,"CLASSIFICATION_TYPE":"U","NORAD_CAT_ID":65949,"ELEMENT_SET_NO":999,"REV_AT_EPOCH":2229,"BSTAR":2.4522e-5,"MEAN_MOTION_DOT":-3.4e-7,"MEAN_MOTION_DDOT":0},{"OBJECT_NAME":"KUIPER-00121","OBJECT_ID":"2025-228D","EPOCH":"2026-03-03T02:51:38.987136","MEAN_MOTION":14.7992645,"ECCENTRICITY":0.0001324,"INCLINATION":51.9009,"RA_OF_ASC_NODE":22.146,"ARG_OF_PERICENTER":98.2324,"MEAN_ANOMALY":261.8789,"EPHEMERIS_TYPE":0,"CLASSIFICATION_TYPE":"U","NORAD_CAT_ID":65950,"ELEMENT_SET_NO":999,"REV_AT_EPOCH":2236,"BSTAR":0.00081583,"MEAN_MOTION_DOT":6.003e-5,"MEAN_MOTION_DDOT":0},{"OBJECT_NAME":"KUIPER-00122","OBJECT_ID":"2025-228E","EPOCH":"2026-03-03T02:34:21.800928","MEAN_MOTION":14.79810679,"ECCENTRICITY":9.73e-5,"INCLINATION":51.9015,"RA_OF_ASC_NODE":32.1635,"ARG_OF_PERICENTER":84.7942,"MEAN_ANOMALY":275.3132,"EPHEMERIS_TYPE":0,"CLASSIFICATION_TYPE":"U","NORAD_CAT_ID":65951,"ELEMENT_SET_NO":999,"REV_AT_EPOCH":2222,"BSTAR":-0.0017158,"MEAN_MOTION_DOT":-0.00013237,"MEAN_MOTION_DDOT":0},{"OBJECT_NAME":"KUIPER-00123","OBJECT_ID":"2025-228F","EPOCH":"2026-03-03T03:25:03.900000","MEAN_MOTION":14.79936152,"ECCENTRICITY":0.0001036,"INCLINATION":51.8994,"RA_OF_ASC_NODE":32.0452,"ARG_OF_PERICENTER":91.062,"MEAN_ANOMALY":269.0461,"EPHEMERIS_TYPE":0,"CLASSIFICATION_TYPE":"U","NORAD_CAT_ID":65952,"ELEMENT_SET_NO":999,"REV_AT_EPOCH":2222,"BSTAR":0.00081306,"MEAN_MOTION_DOT":5.983e-5,"MEAN_MOTION_DDOT":0},{"OBJECT_NAME":"KUIPER-00124","OBJECT_ID":"2025-228G","EPOCH":"2026-03-03T01:59:13.393824","MEAN_MOTION":14.79938137,"ECCENTRICITY":0.0001078,"INCLINATION":51.8989,"RA_OF_ASC_NODE":24.7939,"ARG_OF_PERICENTER":102.0648,"MEAN_ANOMALY":258.0435,"EPHEMERIS_TYPE":0,"CLASSIFICATION_TYPE":"U","NORAD_CAT_ID":65953,"ELEMENT_SET_NO":999,"REV_AT_EPOCH":2232,"BSTAR":9.869e-6,"MEAN_MOTION_DOT":-1.46e-6,"MEAN_MOTION_DDOT":0},{"OBJECT_NAME":"KUIPER-00125","OBJECT_ID":"2025-228H","EPOCH":"2026-03-03T02:22:31.319904","MEAN_MOTION":14.7990992,"ECCENTRICITY":9.79e-5,"INCLINATION":51.902,"RA_OF_ASC_NODE":9.7478,"ARG_OF_PERICENTER":109.7779,"MEAN_ANOMALY":250.3289,"EPHEMERIS_TYPE":0,"CLASSIFICATION_TYPE":"U","NORAD_CAT_ID":65954,"ELEMENT_SET_NO":999,"REV_AT_EPOCH":2253,"BSTAR":0.00084873,"MEAN_MOTION_DOT":6.251e-5,"MEAN_MOTION_DDOT":0},{"OBJECT_NAME":"KUIPER-00126","OBJECT_ID":"2025-228J","EPOCH":"2026-03-03T02:40:05.024064","MEAN_MOTION":14.7994105,"ECCENTRICITY":0.0001022,"INCLINATION":51.8986,"RA_OF_ASC_NODE":29.6911,"ARG_OF_PERICENTER":99.6349,"MEAN_ANOMALY":260.4729,"EPHEMERIS_TYPE":0,"CLASSIFICATION_TYPE":"U","NORAD_CAT_ID":65955,"ELEMENT_SET_NO":999,"REV_AT_EPOCH":2225,"BSTAR":0.00031374,"MEAN_MOTION_DOT":2.172e-5,"MEAN_MOTION_DDOT":0}]
